{"type":"FeatureCollection","features":[{"type":"Feature","properties":{"name":"Westsahara-Nord"},"geometry":{"type":"Polygon","coordinates":[[[-8.668326754033645,27.656445],[-8.666944,26.000278],[-12.000556,26.0],[-12.0,24.385432],[-12.2642589,24.4385383],[-12.5394692,24.3835851],[-12.611246500000043,24.383251500000018],[-12.8866209,24.481621700000026],[-13.1202521,24.5272321],[-13.295003300000033,24.512707299999985],[-13.513348,24.433556800000026],[-13.6889662,24.3905079],[-14.075891,24.4839651],[-14.304816100000043,24.473114099999986],[-14.5061062,24.4161289],[-14.5631665,24.4326731],[-14.66376,24.5258883],[-14.785253400000023,24.55486279999998],[-14.886490700000024,24.642542099999957],[-14.904882,24.683195],[-14.882468,24.703128],[-14.882405,24.769793],[-14.828932,24.91002],[-14.81873169999998,25.049583],[-14.8457411,25.12618370000003],[-14.827432700000035,25.29668259999997],[-14.786718,25.41943629999998],[-14.6970131,25.545185799999974],[-14.637601100000023,25.768535500000038],[-14.566798,25.848626],[-14.498953,25.986346],[-14.485010199999962,26.092577200000015],[-14.500698600000042,26.1263607],[-14.474886,26.179524],[-14.404449,26.261854],[-14.317330300000034,26.2820672],[-14.2493868,26.3333319],[-14.182117,26.424932],[-14.071993,26.436481],[-13.97613130000003,26.471824],[-13.67747,26.645255],[-13.573749,26.731984],[-13.531032,26.800754],[-13.438445500000032,27.05969909999996],[-13.4182439,27.08173409999998],[-13.433081600000044,27.09623859999998],[-13.4083927,27.16416769999998],[-13.304437,27.324033],[-13.178198836365201,27.656445],[-8.668326754033645,27.656445]]]}},{"type":"Feature","properties":{"name":"Westsahara-Sued"},"geometry":{"type":"Polygon","coordinates":[[[-14.904882,24.683195],[-14.986303,24.63033],[-15.013609,24.552853],[-15.144691,24.500659],[-15.222783,24.437887],[-15.327037,24.306164],[-15.5724126,24.094689],[-15.596279,24.040991],[-15.8048957,23.9220429],[-15.9031903,23.8196014],[-15.9240955,23.7574065],[-16.004976,23.648895],[-15.9850597,23.6270019],[-15.96014,23.669642],[-15.9481331,23.6561013],[-15.9397942,23.6618452],[-15.9565901,23.6704287],[-15.9237395,23.7007681],[-15.894769,23.7959354],[-15.8459387,23.8611132],[-15.819509,23.883843],[-15.801292,23.880335],[-15.7679952,23.9211702],[-15.7708631,23.8898302],[-15.7522593,23.914862],[-15.7387484,23.9039572],[-15.7306589,23.8652762],[-15.7490371,23.8190935],[-15.709232,23.835869],[-15.709857,23.821966],[-15.8010011,23.7273884],[-15.7921881,23.7326585],[-15.857618,23.633563],[-15.876858,23.628408],[-15.9068478,23.5637882],[-15.9753474,23.5092422],[-15.9516904,23.4766861],[-15.9788285,23.4196264],[-16.0652935,23.3292496],[-16.0610314,23.3066297],[-16.1146552,23.232547],[-16.1242935,23.1905697],[-16.1982424,23.1064185],[-16.2086744,23.0780739],[-16.1782903,23.090569],[-16.1491834,23.0607856],[-16.147915,22.9948555],[-16.2104902,22.9202786],[-16.2685607,22.896631],[-16.2884605,22.9046132],[-16.3031736,22.8598176],[-16.2884151,22.8338682],[-16.3366373,22.7503463],[-16.359877,22.5781062],[-16.4388633,22.5021335],[-16.4599756,22.3918154],[-16.4948186,22.3486714],[-16.4942949,22.325574],[-16.6144234,22.2696112],[-16.6809637,22.2953752],[-16.7633688,22.2239076],[-16.7818918,22.2026383],[-16.7709594,22.1806529],[-16.812227,22.1514296],[-16.8967762,21.942914],[-16.9022943,21.8948567],[-16.9583364,21.8272465],[-16.965175,21.7740788],[-16.9501564,21.7612539],[-16.9830589,21.7081799],[-16.981912,21.5602346],[-17.0305774,21.3386186],[-17.0634756,21.0015824],[-17.0952649,20.9225281],[-17.0780081,20.8859655],[-17.1048262,20.8439906],[-17.050241,20.7697945],[-17.0683278,20.9154919],[-17.035,21.053611],[-16.9956008,21.1280729],[-16.9479368,21.3341692],[-12.9996371,21.3367176],[-13.083986,22.5366741],[-13.1502902,22.7575125],[-13.105278,22.893056],[-12.998333,23.024722],[-12.571389,23.291389],[-12.365833,23.318611],[-12.155833,23.416389],[-12.000278,23.454444],[-12.0,24.385432],[-12.2642589,24.4385383],[-12.5394692,24.3835851],[-12.611246500000043,24.383251500000018],[-12.8866209,24.481621700000026],[-13.1202521,24.5272321],[-13.295003300000033,24.512707299999985],[-13.513348,24.433556800000026],[-13.6889662,24.3905079],[-14.075891,24.4839651],[-14.304816100000043,24.473114099999986],[-14.5061062,24.4161289],[-14.5631665,24.4326731],[-14.66376,24.5258883],[-14.785253400000023,24.55486279999998],[-14.886490700000024,24.642542099999957],[-14.904882,24.683195]]]}}]}